{
  "norad_id": 62912,
  "name": "STARLINK-11565 [DTC]",
  "history": [
    {
      "epoch": "2026-03-28T19:24:26.090784",
      "apogee_km": 358.19153804811594,
      "perigee_km": 354.358310780739,
      "latitude_deg": -25.186844069103824,
      "longitude_deg": -171.17101023998111,
      "semi_major_axis_km": 6734.411924414427,
      "eccentricity": 0.0002846,
      "inclination_deg": 43.0057,
      "raan_deg": 232.0082,
      "arg_perigee_deg": 263.1413,
      "mean_anomaly_deg": 96.9131,
      "mean_motion_rev_day": 15.70917023
    }
  ]
}