{"fetched_at":"2026-03-30T06:02:59Z","count":15439,"tles":[{"name":"STARLINK-11565 [DTC]","line1":"1 62912U 25027F   26087.80863531  .00234503  00000+0  17741-2 0  9991","line2":"2 62912  43.0057 232.0082 0002846 263.1413  96.9131 15.70917023 66161","category":"Starlink"}]}